GUOWANG GROUP 20 OBJECT*
1 68135U 26047G   26077.27194369 -.00000142  00000+0  64954-5 0  9995
2 68135  50.0117  35.4571 0007390 288.7883  71.2220 14.06047350   775
GUOWANG GROUP 20 OBJECT*
1 68136U 26047H   26077.27156506 -.00000141  00000+0  70974-5 0  9995
2 68136  50.0096  35.4530 0007513 294.7945  65.2178 14.06144229   767
GUOWANG GROUP 20 OBJECT*
1 68137U 26047J   26077.27107446 -.00000139  00000+0  78566-5 0  9997
2 68137  50.0088  35.4481 0005940 290.2388  69.7878 14.06272272   775
CZ-8A R/B               
1 68138U 26047K   26077.24881778 -.00000179  00000+0 -13117-4 0  9997
2 68138  49.9543  35.2764 0044765 167.8493 192.3505 14.12228111   764
SHIYAN-30 03            
1 68139U 26048A   26077.27211261  .00002183  00000+0  21565-3 0  9996
2 68139  34.9995  92.6047 0004107 278.7830  81.2410 14.91671337   786
SHIYAN-30 04            
1 68140U 26048B   26077.27290042  .00001471  00000+0  14620-3 0  9995
2 68140  34.9911  92.6134 0002542 283.4574  76.5848 14.91681393   787
CZ-2D R/B               
1 68141U 26048C   26077.32837358  .00001505  00000+0  13581-3 0  9992
2 68141  35.1293  92.3324 0015164  39.6260 320.5554 14.95527346   797
YAOGAN-50 02            
1 68196U 26051A   26077.15303635  .00000263  00000+0  29052-4 0  9994
2 68196 142.0012 247.3429 0136250 138.8423 222.2659 14.13401069   376
CZ-6A R/B               
1 68197U 26051B   26077.08065479  .00001299  00000+0  17466-3 0  9993
2 68197 142.0311 247.8630 0185629 110.1749 251.9055 14.56354376   381
2026-052A               
1 68198U 26052A   26077.27229149  .00005535  00000+0  34566-3 0  9999
2 68198  97.5391 153.4906 0012304 257.7790 102.2061 15.09823271   328
2026-052B               
1 68199U 26052B   26077.27205874  .00001188  00000+0  76991-4 0  9998
2 68199  97.5384 153.4898 0011555 259.4120 100.5808 15.09982223   327
2026-052C               
1 68200U 26052C   26077.27186839  .00003990  00000+0  24831-3 0  9998
2 68200  97.5390 153.4917 0011223 262.5994  97.3960 15.10128775   312
