CCSDS_OMM_VERS = 2.0
CREATION_DATE  = 
ORIGINATOR     = 

OBJECT_NAME    = GUOWANG GROUP 20 OBJECT G
OBJECT_ID      = 2026-047G
CENTER_NAME    = EARTH
REF_FRAME      = TEME
TIME_SYSTEM    = UTC
MEAN_ELEMENT_THEORY = SGP/SGP4

EPOCH          = 2026-03-18T06:31:35.934816
MEAN_MOTION    = 14.06047350
ECCENTRICITY   = .00073901
INCLINATION    = 50.0117
RA_OF_ASC_NODE = 35.4571
ARG_OF_PERICENTER = 288.7883
MEAN_ANOMALY   = 71.2220

EPHEMERIS_TYPE = 0
CLASSIFICATION_TYPE = U
NORAD_CAT_ID   = 68135
ELEMENT_SET_NO = 999
REV_AT_EPOCH   = 77
BSTAR          = .6495368E-5
MEAN_MOTION_DOT = -.142E-5
MEAN_MOTION_DDOT = 0

CCSDS_OMM_VERS = 2.0
CREATION_DATE  = 
ORIGINATOR     = 

OBJECT_NAME    = GUOWANG GROUP 20 OBJECT H
OBJECT_ID      = 2026-047H
CENTER_NAME    = EARTH
REF_FRAME      = TEME
TIME_SYSTEM    = UTC
MEAN_ELEMENT_THEORY = SGP/SGP4

EPOCH          = 2026-03-18T06:31:03.221184
MEAN_MOTION    = 14.06144229
ECCENTRICITY   = .00075139
INCLINATION    = 50.0096
RA_OF_ASC_NODE = 35.4530
ARG_OF_PERICENTER = 294.7945
MEAN_ANOMALY   = 65.2178

EPHEMERIS_TYPE = 0
CLASSIFICATION_TYPE = U
NORAD_CAT_ID   = 68136
ELEMENT_SET_NO = 999
REV_AT_EPOCH   = 76
BSTAR          = .7097355E-5
MEAN_MOTION_DOT = -.141E-5
MEAN_MOTION_DDOT = 0

CCSDS_OMM_VERS = 2.0
CREATION_DATE  = 
ORIGINATOR     = 

OBJECT_NAME    = GUOWANG GROUP 20 OBJECT J
OBJECT_ID      = 2026-047J
CENTER_NAME    = EARTH
REF_FRAME      = TEME
TIME_SYSTEM    = UTC
MEAN_ELEMENT_THEORY = SGP/SGP4

EPOCH          = 2026-03-18T06:30:20.833344
MEAN_MOTION    = 14.06272272
ECCENTRICITY   = .00059406
INCLINATION    = 50.0088
RA_OF_ASC_NODE = 35.4481
ARG_OF_PERICENTER = 290.2388
MEAN_ANOMALY   = 69.7878

EPHEMERIS_TYPE = 0
CLASSIFICATION_TYPE = U
NORAD_CAT_ID   = 68137
ELEMENT_SET_NO = 999
REV_AT_EPOCH   = 77
BSTAR          = .785664E-5
MEAN_MOTION_DOT = -.139E-5
MEAN_MOTION_DDOT = 0

CCSDS_OMM_VERS = 2.0
CREATION_DATE  = 
ORIGINATOR     = 

OBJECT_NAME    = CZ-8A R/B
OBJECT_ID      = 2026-047K
CENTER_NAME    = EARTH
REF_FRAME      = TEME
TIME_SYSTEM    = UTC
MEAN_ELEMENT_THEORY = SGP/SGP4

EPOCH          = 2026-03-18T05:58:17.856192
MEAN_MOTION    = 14.12228111
ECCENTRICITY   = .00447658
INCLINATION    = 49.9543
RA_OF_ASC_NODE = 35.2764
ARG_OF_PERICENTER = 167.8493
MEAN_ANOMALY   = 192.3505

EPHEMERIS_TYPE = 0
CLASSIFICATION_TYPE = U
NORAD_CAT_ID   = 68138
ELEMENT_SET_NO = 999
REV_AT_EPOCH   = 76
BSTAR          = -.13117178E-4
MEAN_MOTION_DOT = -.179E-5
MEAN_MOTION_DDOT = 0

CCSDS_OMM_VERS = 2.0
CREATION_DATE  = 
ORIGINATOR     = 

OBJECT_NAME    = SHIYAN-30 03
OBJECT_ID      = 2026-048A
CENTER_NAME    = EARTH
REF_FRAME      = TEME
TIME_SYSTEM    = UTC
MEAN_ELEMENT_THEORY = SGP/SGP4

EPOCH          = 2026-03-18T06:31:50.529504
MEAN_MOTION    = 14.91671337
ECCENTRICITY   = .00041078
INCLINATION    = 34.9995
RA_OF_ASC_NODE = 92.6047
ARG_OF_PERICENTER = 278.7830
MEAN_ANOMALY   = 81.2410

EPHEMERIS_TYPE = 0
CLASSIFICATION_TYPE = U
NORAD_CAT_ID   = 68139
ELEMENT_SET_NO = 999
REV_AT_EPOCH   = 78
BSTAR          = .21564958E-3
MEAN_MOTION_DOT = .2183E-4
MEAN_MOTION_DDOT = 0

CCSDS_OMM_VERS = 2.0
CREATION_DATE  = 
ORIGINATOR     = 

OBJECT_NAME    = SHIYAN-30 04
OBJECT_ID      = 2026-048B
CENTER_NAME    = EARTH
REF_FRAME      = TEME
TIME_SYSTEM    = UTC
MEAN_ELEMENT_THEORY = SGP/SGP4

EPOCH          = 2026-03-18T06:32:58.596288
MEAN_MOTION    = 14.91681393
ECCENTRICITY   = .00025421
INCLINATION    = 34.9911
RA_OF_ASC_NODE = 92.6134
ARG_OF_PERICENTER = 283.4574
MEAN_ANOMALY   = 76.5848

EPHEMERIS_TYPE = 0
CLASSIFICATION_TYPE = U
NORAD_CAT_ID   = 68140
ELEMENT_SET_NO = 999
REV_AT_EPOCH   = 78
BSTAR          = .14619557E-3
MEAN_MOTION_DOT = .1471E-4
MEAN_MOTION_DDOT = 0

CCSDS_OMM_VERS = 2.0
CREATION_DATE  = 
ORIGINATOR     = 

OBJECT_NAME    = CZ-2D R/B
OBJECT_ID      = 2026-048C
CENTER_NAME    = EARTH
REF_FRAME      = TEME
TIME_SYSTEM    = UTC
MEAN_ELEMENT_THEORY = SGP/SGP4

EPOCH          = 2026-03-18T07:52:51.477312
MEAN_MOTION    = 14.95527346
ECCENTRICITY   = .0015164
INCLINATION    = 35.1293
RA_OF_ASC_NODE = 92.3324
ARG_OF_PERICENTER = 39.6260
MEAN_ANOMALY   = 320.5554

EPHEMERIS_TYPE = 0
CLASSIFICATION_TYPE = U
NORAD_CAT_ID   = 68141
ELEMENT_SET_NO = 999
REV_AT_EPOCH   = 79
BSTAR          = .13580869E-3
MEAN_MOTION_DOT = .1505E-4
MEAN_MOTION_DDOT = 0

CCSDS_OMM_VERS = 2.0
CREATION_DATE  = 
ORIGINATOR     = 

OBJECT_NAME    = YAOGAN-50 02
OBJECT_ID      = 2026-051A
CENTER_NAME    = EARTH
REF_FRAME      = TEME
TIME_SYSTEM    = UTC
MEAN_ELEMENT_THEORY = SGP/SGP4

EPOCH          = 2026-03-18T03:40:22.340640
MEAN_MOTION    = 14.13401069
ECCENTRICITY   = .01362506
INCLINATION    = 142.0012
RA_OF_ASC_NODE = 247.3429
ARG_OF_PERICENTER = 138.8423
MEAN_ANOMALY   = 222.2659

EPHEMERIS_TYPE = 0
CLASSIFICATION_TYPE = U
NORAD_CAT_ID   = 68196
ELEMENT_SET_NO = 999
REV_AT_EPOCH   = 37
BSTAR          = .290515E-4
MEAN_MOTION_DOT = .263E-5
MEAN_MOTION_DDOT = 0

CCSDS_OMM_VERS = 2.0
CREATION_DATE  = 
ORIGINATOR     = 

OBJECT_NAME    = CZ-6A R/B
OBJECT_ID      = 2026-051B
CENTER_NAME    = EARTH
REF_FRAME      = TEME
TIME_SYSTEM    = UTC
MEAN_ELEMENT_THEORY = SGP/SGP4

EPOCH          = 2026-03-18T01:56:08.573856
MEAN_MOTION    = 14.56354376
ECCENTRICITY   = .01856291
INCLINATION    = 142.0311
RA_OF_ASC_NODE = 247.8630
ARG_OF_PERICENTER = 110.1749
MEAN_ANOMALY   = 251.9055

EPHEMERIS_TYPE = 0
CLASSIFICATION_TYPE = U
NORAD_CAT_ID   = 68197
ELEMENT_SET_NO = 999
REV_AT_EPOCH   = 38
BSTAR          = .17465667E-3
MEAN_MOTION_DOT = .1299E-4
MEAN_MOTION_DDOT = 0

CCSDS_OMM_VERS = 2.0
CREATION_DATE  = 
ORIGINATOR     = 

OBJECT_NAME    = 2026-052A
OBJECT_ID      = 2026-052A
CENTER_NAME    = EARTH
REF_FRAME      = TEME
TIME_SYSTEM    = UTC
MEAN_ELEMENT_THEORY = SGP/SGP4

EPOCH          = 2026-03-18T06:32:05.984736
MEAN_MOTION    = 15.09823271
ECCENTRICITY   = .00123049
INCLINATION    = 97.5391
RA_OF_ASC_NODE = 153.4906
ARG_OF_PERICENTER = 257.7790
MEAN_ANOMALY   = 102.2061

EPHEMERIS_TYPE = 0
CLASSIFICATION_TYPE = U
NORAD_CAT_ID   = 68198
ELEMENT_SET_NO = 999
REV_AT_EPOCH   = 32
BSTAR          = .34566268E-3
MEAN_MOTION_DOT = .5535E-4
MEAN_MOTION_DDOT = 0

CCSDS_OMM_VERS = 2.0
CREATION_DATE  = 
ORIGINATOR     = 

OBJECT_NAME    = 2026-052B
OBJECT_ID      = 2026-052B
CENTER_NAME    = EARTH
REF_FRAME      = TEME
TIME_SYSTEM    = UTC
MEAN_ELEMENT_THEORY = SGP/SGP4

EPOCH          = 2026-03-18T06:31:45.875136
MEAN_MOTION    = 15.09982223
ECCENTRICITY   = .00115555
INCLINATION    = 97.5384
RA_OF_ASC_NODE = 153.4898
ARG_OF_PERICENTER = 259.4120
MEAN_ANOMALY   = 100.5808

EPHEMERIS_TYPE = 0
CLASSIFICATION_TYPE = U
NORAD_CAT_ID   = 68199
ELEMENT_SET_NO = 999
REV_AT_EPOCH   = 32
BSTAR          = .76990883E-4
MEAN_MOTION_DOT = .1188E-4
MEAN_MOTION_DDOT = 0

CCSDS_OMM_VERS = 2.0
CREATION_DATE  = 
ORIGINATOR     = 

OBJECT_NAME    = 2026-052C
OBJECT_ID      = 2026-052C
CENTER_NAME    = EARTH
REF_FRAME      = TEME
TIME_SYSTEM    = UTC
MEAN_ELEMENT_THEORY = SGP/SGP4

EPOCH          = 2026-03-18T06:31:29.428896
MEAN_MOTION    = 15.10128775
ECCENTRICITY   = .0011223
INCLINATION    = 97.5390
RA_OF_ASC_NODE = 153.4917
ARG_OF_PERICENTER = 262.5994
MEAN_ANOMALY   = 97.3960

EPHEMERIS_TYPE = 0
CLASSIFICATION_TYPE = U
NORAD_CAT_ID   = 68200
ELEMENT_SET_NO = 999
REV_AT_EPOCH   = 31
BSTAR          = .24830766E-3
MEAN_MOTION_DOT = .399E-4
MEAN_MOTION_DDOT = 0

